[{"OBJECT_NAME":"STARLINK-30940","OBJECT_ID":"2023-180H","EPOCH":"2026-03-09T20:01:05.080512","MEAN_MOTION":15.27570165,"ECCENTRICITY":0.00022806,"INCLINATION":43.0025,"RA_OF_ASC_NODE":266.649,"ARG_OF_PERICENTER":277.2266,"MEAN_ANOMALY":82.8327,"EPHEMERIS_TYPE":0,"CLASSIFICATION_TYPE":"U","NORAD_CAT_ID":58409,"ELEMENT_SET_NO":999,"REV_AT_EPOCH":12935,"BSTAR":-9.0927856e-5,"MEAN_MOTION_DOT":-2.763e-5,"MEAN_MOTION_DDOT":0},{"OBJECT_NAME":"ELECTRON KICK STAGE R\/B","OBJECT_ID":"2022-147B","EPOCH":"2026-03-09T22:28:20.187264","MEAN_MOTION":15.28920172,"ECCENTRICITY":0.00095089,"INCLINATION":97.642,"RA_OF_ASC_NODE":85.1135,"ARG_OF_PERICENTER":110.4683,"MEAN_ANOMALY":249.7578,"EPHEMERIS_TYPE":0,"CLASSIFICATION_TYPE":"U","NORAD_CAT_ID":54228,"ELEMENT_SET_NO":999,"REV_AT_EPOCH":18390,"BSTAR":0.00083201931,"MEAN_MOTION_DOT":0.00023374,"MEAN_MOTION_DDOT":0}]
